{"request":{"url":"https://api.flightstats.com/flex/weather/rest/v1/json/metar/PDX","airport":{"requestedCode":"PDX","fsCode":"PDX"},"codeType":{}},"metar":{"report":"KPDX 131953Z 00000KT 10SM BKN016 00/M04 A3048 RMK AO2 SLP322 T00001044","reportTime":"2013-01-13T19:53:00.000Z","weatherStationIcao":"KPDX","tags":[{"key":"Prevailing Conditions","value":"Cloudy"},{"key":"Instrumentation","value":"MVFR"},{"key":"Freezing","value":"4"}],"conditions":{"wind":{"direction":0,"directionIsVariable":false,"speedKnots":"0.00"},"visibility":{"miles":"10.00","lessThan":false,"cavok":false},"weatherConditions":[],"skyConditions":[{"coverage":"Broken clouds","base":1600}],"pressureInchesHg":"30.48"},"temperatureCelsius":"0.00","dewPointCelsius":"-4.40","runwayVisualRanges":[],"obscurations":[],"noSignificantChange":false},"appendix":{"airports":[{"fs":"PDX","iata":"PDX","icao":"KPDX","faa":"PDX","name":"Portland International Airport","street1":"7000 NE Airport Way","city":"Portland","cityCode":"PDX","stateCode":"OR","postalCode":"97218","countryCode":"US","countryName":"United States","regionName":"North America","timeZoneRegionName":"America/Los_Angeles","weatherZone":"ORZ006","localTime":"2013-01-13T12:16:59.616","utcOffsetHours":-8.0,"latitude":45.588995,"longitude":-122.592901,"elevationFeet":30,"classification":1,"active":true,"delayIndexUrl":"https://api.flightstats.com/flex/delayindex/rest/v1/json/airports/PDX?codeType=fs"}]}}